ERS-2                   
1 23560U 95021A   24050.25045346  .02222186  31159-5  12439-2 0  9991
2 23560  98.5051  68.6231 0006138 216.1009 208.6792 16.19300178547690
